HALOSAT                 
1 43549U 98067NX  20167.80587731  .00022961  00000-0  16528-3 0  9995
2 43549  51.6354 299.0183 0002692  80.4518 279.6785 15.73483898109558
ENDUROSAT ONE           
1 43551U 98067NZ  20167.78513807  .00044699  00000-0  22147-3 0  9994
2 43551  51.6335 287.4931 0001767  49.4689 310.6467 15.81544430110114
EQUISAT                 
1 43552U 98067PA  20167.83233471  .00023379  00000-0  16201-3 0  9993
2 43552  51.6346 296.9793 0003170  82.8971 277.2388 15.74359745109958
AEROCUBE 12A            
1 43556U 18046C   20167.86886692  .00001163  00000-0  52059-4 0  9997
2 43556  51.6420 113.1716 0007743 292.4812  67.5348 15.29805503107135
AEROCUBE 12B            
1 43557U 18046D   20167.86406230  .00001273  00000-0  56235-4 0  9996
2 43557  51.6421 113.8776 0007797 291.8077  68.2073 15.29521978107072
UITMSAT-1               
1 43589U 98067PD  20167.79521140  .00031505  00000-0  19123-3 0  9997
2 43589  51.6347 295.0423 0002060 104.9278 255.1950 15.77223154105719
MAYA-1                  
1 43590U 98067PE  20167.59796580  .00029470  00000-0  17936-3 0  9997
2 43590  51.6296 295.9703 0001904  93.6324 266.4894 15.77199747105617
BHUTAN-1                
1 43591U 98067PF  20167.76069982  .00032142  00000-0  19368-3 0  9997
2 43591  51.6359 294.8870 0002139 105.9206 254.2030 15.77376798105641
SIRIUSSAT-1             
1 43595U 98067PG  20167.87575682  .00025205  00000-0  17145-3 0  9995
2 43595  51.6305 299.3652 0001380  29.2337 330.8739 15.74744860104770
SIRIUSSAT-2             
1 43596U 98067PH  20167.87397901  .00025012  00000-0  17102-3 0  9991
2 43596  51.6319 300.1794 0001752  33.5315 326.5794 15.74629114104767
TANUSHA-3               
1 43597U 98067PJ  20167.90852163  .00067947  00000-0  26998-3 0  9998
2 43597  51.6280 286.6305 0002874 334.3150  25.7711 15.86033561104941
SURFSAT                 
1 43614U 18070B   20167.91020268  .00002200  00000-0  56685-4 0  9996
2 43614  93.0200 153.9491 0014764 354.5206   5.5884 15.39190641 98245
CP7 (DAVE)              
1 43615U 18070C   20167.94148408  .00002092  00000-0  54176-4 0  9999
2 43615  93.0202 153.9525 0014891 353.8330   6.2738 15.39045453 98243
ELFIN-B                 
1 43616U 18070D   20167.91830456  .00002882  00000-0  71318-4 0  9992
2 43616  93.0161 153.8848 0015271 355.7659   4.3464 15.40395344 98281
ELFIN-A                 
1 43617U 18070E   20167.88687333  .00003361  00000-0  82666-4 0  9994
2 43617  93.0213 154.3823 0014463 353.0908   7.0145 15.40578655 98283
CUBEBEL-1 (BSUSAT-1)    
1 43666U 18083E   20167.85934319  .00000869  00000-0  45675-4 0  9997
2 43666  97.4889 194.3414 0015270  12.4868 112.1921 15.18262010 90374
DEBRISSAT-2             
1 43680U 98067PR  20151.69072398  .11468650  12477-4  51439-3 0  9995
2 43680  51.6154 356.6377 0010832 273.4515  86.5274 16.42437352111263
CICERO 10               
1 43690U 18088A   20167.84738026  .00000637  00000-0  27480-4 0  9992
2 43690  85.0390  79.3818 0013454 323.8239  36.2091 15.20233915 88516
IRVINE01                
1 43693U 18088D   20167.71781223  .00001828  00000-0  76125-4 0  9991
2 43693  85.0361  78.1631 0015844 303.1474  56.8247 15.22877915 88588
PROXIMA I               
1 43694U 18088E   20167.84142209  .00000741  00000-0  30602-4 0  9994
2 43694  85.0332  77.9215 0017012 292.6480  67.2962 15.21975006 88602
PROXIMA II              
1 43696U 18088G   20167.70814972  .00000705  00000-0  29032-4 0  9999
2 43696  85.0333  78.0133 0017070 293.1192  66.8251 15.21976671 88577
FACSAT-1                
1 43721U 18096C   20167.90070288  .00001197  00000-0  47432-4 0  9993
2 43721  97.4205 241.4831 0019021 125.3862 234.9157 15.27224667 86152
CENTAURI-2              
1 43722U 18096D   20167.79599424  .00001584  00000-0  60932-4 0  9999
2 43722  97.4216 241.6525 0019034 125.5559 234.7458 15.27752233 86142
INNOSAT-2               
1 43738U 18096V   20167.89069977  .00002184  00000-0  76439-4 0  9998
2 43738  97.4235 243.7095 0024774 132.5346 227.7992 15.30331238 86297
SIRION PATHFINDER-2     
1 43759U 18099B   20167.83832195 -.00000175  00000-0 -10635-4 0  9994
2 43759  97.7053 239.5261 0014099 182.4606 177.6548 14.95280069 83697
CORVUS-BC 4             
1 43767U 18099K   20167.84584737 -.00000272  00000-0 -19816-4 0  9998
2 43767  97.7033 238.9463 0011575 185.4080 174.7017 14.94724828 83667
MOVE-II                 
1 43780U 18099Y   20167.85161658 -.00000010  00000-0  42754-5 0  9994
2 43780  97.7059 239.4694 0013207 193.9034 166.1825 14.95400731 83677
SPACEBEE-7              
1 43816U 18099BL  20167.85816902  .00000074  00000-0  11772-4 0  9997
2 43816  97.7070 239.8665 0013520 178.2443 181.8827 14.95692873 83250
SPACEBEE-5              
1 43817U 18099BM  20167.87910563  .00001245  00000-0  11512-3 0  9990
2 43817  97.7123 240.3300 0013546 176.8942 183.2366 14.96306108 83279
SPACEBEE-6              
1 43818U 18099BN  20167.88872030  .00000904  00000-0  85879-4 0  9997
2 43818  97.7089 240.0344 0013531 176.6052 183.5263 14.95887812 83410
SHIELDS 1               
1 43850U 18104B   20167.75537106  .00000431  00000-0  17337-4 0  9997
2 43850  85.0289 176.4782 0017261  78.4934 281.8244 15.21387628 83217
STF-1                   
1 43852U 18104D   20167.76830833  .00000940  00000-0  40071-4 0  9999
2 43852  85.0332 177.0095 0017082  90.8929 269.4270 15.21282791 83198
ZACUBE-2                
1 43907U 18111AH  20167.87719269  .00000328  00000-0  16058-4 0  9997
2 43907  97.2661  67.6893 0022417 145.3517 214.9187 15.24589051 81772
LUME 1                  
1 43908U 18111AJ  20167.80181688  .00000757  00000-0  32920-4 0  9991
2 43908  97.2661  67.7858 0022155 145.0832 215.1865 15.25037288 81778
AOBA VELOX-IV           
1 43940U 19003J   20167.80374696  .00001393  00000-0  58252-4 0  9994
2 43940  97.2278 219.1396 0022513 226.1578 133.7801 15.25009689 78397
CATSAT-2                
1 44029U 98067PV  20167.90951710  .00014361  00000-0  14712-3 0  9990
2 44029  51.6386 323.8730 0003802  85.8239 274.3191 15.65250018 78289
DELPHINI                
1 44030U 98067PW  20167.86403458  .00015064  00000-0  14816-3 0  9994
2 44030  51.6347 322.7061 0003358  83.2208 276.9170 15.66235268 78261
UNITE                   
1 44031U 98067PX  20167.83628627  .00007483  00000-0  92294-4 0  9992
2 44031  51.6379 330.0960 0003149  76.5981 283.5364 15.61315371 78165
CATSAT-1                
1 44033U 98067PZ  20167.90941316  .00014281  00000-0  14628-3 0  9993
2 44033  51.6389 323.8788 0003724  83.3166 276.8253 15.65259879 78195
RAAVANA-1               
1 44329U 98067QE  20167.84589361  .00007702  00000-0  10770-3 0  9996
2 44329  51.6402 342.2141 0005407   1.7954 358.3057 15.57892837 56750
UGUISU                  
1 44330U 98067QF  20167.72997990  .00007143  00000-0  10069-3 0  9996
2 44330  51.6389 342.9346 0005422 359.8699   0.2291 15.57806982 56715
NEPALISAT-1             
1 44331U 98067QG  20167.71005190  .00007370  00000-0  10327-3 0  9997
2 44331  51.6389 342.8041 0005492   3.2176 356.8851 15.57913294 56722
SPOOQY-1                
1 44332U 98067QH  20167.84168922  .00007437  00000-0  10450-3 0  9996
2 44332  51.6393 342.1806 0004503   7.9724 352.1339 15.57822921 56706
SPACEBEE-9              
1 44370U 19037F   20167.92033791  .00005304  00000-0  12359-3 0  9993
2 44370  45.0061 124.3224 0012359 179.5635 180.5267 15.43424419 54364
SPACEBEE-8              
1 44371U 19037G   20167.28672327  .00011165  00000-0  21820-3 0  9992
2 44371  45.0060 122.1466 0010264 175.8775 184.2202 15.47596665 54339
IOD-1 GEMS              
1 44385U 98067QK  20167.76753774  .00012347  00000-0  15493-3 0  9998
2 44385  51.6408 340.9869 0001802 320.0999  39.9861 15.60150463 54233
MOVE-IIB                
1 44398U 19038N   20167.89834078  .00000866  00000-0  53399-4 0  9995
2 44398  97.5358 129.1487 0026418 130.1661 230.1889 15.12318932 52348
SONATE                  
1 44400U 19038Q   20167.86621465  .00000290  00000-0  20610-4 0  9991
2 44400  97.5396 129.1328 0026472 129.1602 231.1987 15.11953935 52337
LUCKY-7                 
1 44406U 19038W   20167.88217702  .00000387  00000-0  26021-4 0  9993
2 44406  97.5389 129.2518 0025896 128.7240 231.6311 15.12218483 52338
BEESAT 9                
1 44412U 19038AC  20167.61622272  .00000547  00000-0  35207-4 0  9997
2 44412  97.5381 128.9703 0023825 134.8143 225.5029 15.12296530 51997
JAISAT-1                
1 44419U 19038F   20167.90168048  .00000645  00000-0  40312-4 0  9994
2 44419  97.5383 129.5153 0022766 132.8563 227.4585 15.12780384 52364
SWIATOWID               
1 44426U 98067QL  20167.87264292  .00014810  00000-0  17843-3 0  9996
2 44426  51.6420 339.8725 0002139 309.0318 192.3825 15.61037744 54261
KRAKSAT                 
1 44427U 98067QM  20167.88103396  .00005506  00000-0  84631-4 0  9997
2 44427  51.6428 345.1890 0002499 312.7011 188.5780 15.55957973 54235
VCC A                   
1 44428U 98067QN  20167.77370165  .00007360  00000-0  10565-3 0  9990
2 44428  51.6415 344.0248 0001989 338.9100  21.1810 15.57259946 54243
ENTRYSAT                
1 44429U 98067QP  20167.74434115  .00009055  00000-0  12385-3 0  9999
2 44429  51.6395 343.0526 0001676 325.2376  34.8507 15.58238823 54253
VCC C                   
1 44430U 98067QQ  20167.84671798  .00010404  00000-0  13534-3 0  9999
2 44430  51.6392 341.4961 0001578 344.6692  15.4253 15.59397653 53119
VCC B                   
1 44431U 98067QR  20167.77345480  .00007363  00000-0  10554-3 0  9997
2 44431  51.6406 344.0088 0002108 337.1652  22.9246 15.57298729 54183
ATL-1                   
1 44830U 19084G   20167.68126258  .00043797  00000-0  24927-3 0  9992
2 44830  96.9749  36.8224 0024319 238.9067 120.9814 15.78418891 30172
SMOG-P                  
1 44832U 19084J   20167.67948152  .00050208  00000-0  26924-3 0  9992
2 44832  96.9752  36.9874 0023103 236.6585 123.2472 15.79754857 30183
